[{"OBJECT_NAME":"STARLINK-35683","OBJECT_ID":"2025-257AB","EPOCH":"2026-03-09T16:26:51.457056","MEAN_MOTION":15.3017288,"ECCENTRICITY":0.00014136,"INCLINATION":53.159,"RA_OF_ASC_NODE":216.9781,"ARG_OF_PERICENTER":51.3731,"MEAN_ANOMALY":308.7396,"EPHEMERIS_TYPE":0,"CLASSIFICATION_TYPE":"U","NORAD_CAT_ID":66405,"ELEMENT_SET_NO":999,"REV_AT_EPOCH":1966,"BSTAR":0.00066600395,"MEAN_MOTION_DOT":0.00019401,"MEAN_MOTION_DDOT":0},{"OBJECT_NAME":"CZ-6A R\/B","OBJECT_ID":"2023-168B","EPOCH":"2026-03-09T21:13:08.722272","MEAN_MOTION":15.16100791,"ECCENTRICITY":0.00607667,"INCLINATION":97.7542,"RA_OF_ASC_NODE":104.7688,"ARG_OF_PERICENTER":339.2379,"MEAN_ANOMALY":20.6386,"EPHEMERIS_TYPE":0,"CLASSIFICATION_TYPE":"U","NORAD_CAT_ID":58200,"ELEMENT_SET_NO":999,"REV_AT_EPOCH":12979,"BSTAR":0.00029693841,"MEAN_MOTION_DOT":5.919e-5,"MEAN_MOTION_DDOT":0}]
